ISS (ZARYA)             
1 25544U 98067A   26188.18576601  .00005994  00000+0  11712-3 0  9990
2 25544  51.6305 201.1096 0006690 265.7165  94.3058 15.48929707574854
