[{"OBJECT_NAME":"ISS (ZARYA)","OBJECT_ID":"1998-067A","EPOCH":"2026-07-07T04:27:30.183264","MEAN_MOTION":15.48929707,"ECCENTRICITY":0.000669,"INCLINATION":51.6305,"RA_OF_ASC_NODE":201.1096,"ARG_OF_PERICENTER":265.7165,"MEAN_ANOMALY":94.3058,"EPHEMERIS_TYPE":0,"CLASSIFICATION_TYPE":"U","NORAD_CAT_ID":25544,"ELEMENT_SET_NO":999,"REV_AT_EPOCH":57485,"BSTAR":0.00011712,"MEAN_MOTION_DOT":5.994e-5,"MEAN_MOTION_DDOT":0}]
